ORBCOMM FM103           
1 40091U 14040F   25307.68139948  .00000894  00000+0  22726-3 0  9990
2 40091  47.0053  78.9126 0002239 213.3681 146.7064 14.58426461584464
ORBCOMM FM114           
1 41179U 15081A   25307.83613667  .00000780  00000+0  20281-3 0  9994
2 41179  47.0040 347.1572 0003036 268.6057  91.4481 14.58465680524852
ORBCOMM FM119           
1 41180U 15081B   25307.89892542  .00000831  00000+0  21397-3 0  9999
2 41180  47.0005 256.2105 0001753 312.2784  47.7953 14.58402577526119
ORBCOMM FM105           
1 41181U 15081C   25307.38307472  .00000307  00000+0  13113-3 0  9992
2 41181  47.0017 277.1708 0002316 244.0225 116.0417 14.45351031520889
ORBCOMM FM110           
1 41182U 15081D   25307.82734772  .00001136  00000+0  27851-3 0  9994
2 41182  47.0031 346.7201 0001561 143.6506 216.4486 14.58511869524723
ORBCOMM FM118           
1 41183U 15081E   25307.44974068  .00000905  00000+0  22959-3 0  9994
2 41183  47.0053 348.7828 0001719  64.3082 295.7981 14.58463421524773
ORBCOMM FM112           
1 41184U 15081F   25307.93338353  .00001114  00000+0  27377-3 0  9992
2 41184  46.9990 255.0674 0002150 276.2387  83.8254 14.58530959526067
ORBCOMM FM113           
1 41185U 15081G   25307.56798902  .00000897  00000+0  22746-3 0  9994
2 41185  47.0008 257.1424 0001963 287.4154  72.6517 14.58521385525995
